ORBCOMM FM37            
1 33064U 08031E   24138.53023270  .00004715  00000+0  69879-3 0  9996
2 33064  48.4405  59.9524 0005586 123.3067  46.7610 14.76481906855517
ORBCOMM FM40            
1 33065U 08031F   24138.52039649  .00005823  00000+0  82983-3 0  9995
2 33065  48.4429  49.3054 0006964 132.5595  38.1973 14.77809741855557
VESSELSAT 1             
1 37840U 11058C   24138.85532138  .00000566  00000+0  16436-3 0  9999
2 37840  19.9636 325.6804 0013699 158.3004 201.7982 14.11155443650622
ORBCOMM FM109           
1 40086U 14040A   24138.57210370  .00002602  00000+0  61495-3 0  9997
2 40086  47.0025  82.6222 0002610 297.0136  63.0482 14.56631122523472
ORBCOMM FM107           
1 40087U 14040B   24138.53771274  .00002621  00000+0  61904-3 0  9995
2 40087  47.0045  83.7509 0002028 272.8005  87.2648 14.56641368523424
ORBCOMM FM106           
1 40088U 14040C   24138.54770766  .00003357  00000+0  62326-3 0  9998
2 40088  47.0600 296.3178 0017188  28.4574 331.7251 14.67064545525332
ORBCOMM FM111           
1 40089U 14040D   24138.84412602  .00004593  00000+0  59556-3 0  9998
2 40089  47.0027 195.0424 0031754 104.6903 255.7515 14.81856330531504
ORBCOMM FM104           
1 40090U 14040E   24138.65311630  .00002021  00000+0  50091-3 0  9997
2 40090  47.0037 112.1982 0017044 201.4732 158.5439 14.55152005523086
